NORAD_CAT_ID,OBJECT_NAME,OBJECT_TYPE,EPOCH,MEAN_MOTION,ECCENTRICITY,INCLINATION,RA_OF_ASC_NODE,ARG_OF_PERICENTER,MEAN_ANOMALY,BSTAR,MEAN_MOTION_DOT,MEAN_MOTION_DDOT,TLE_LINE0,TLE_LINE1,TLE_LINE2,SEMIMAJOR_AXIS,PERIOD,APOGEE,PERIGEE,DECAYED
54793.0,STARLINK-5433,PAYLOAD,2023-09-14 22:51:37,15.08827791,0.0001354,53.2168,129.6369,96.6451,263.4695,-9.1218e-05,-1.739e-05,0.0,0 STARLINK-5433,1 54793U 22175AM  23257.95251765 -.00001739  00000-0 -91218-4 0  9991,2 54793  53.2168 129.6369 0001354  96.6451 263.4695 15.08827791 41227,6917.918,95.438,540.719,538.846,0.0
54793.0,STARLINK-5433,PAYLOAD,2023-09-16 00:17:46,15.08851496,0.0001353,53.2171,124.8772,85.2775,274.8372,0.00012197,1.654e-05,0.0,0 STARLINK-5433,1 54793U 22175AM  23259.01233987  .00001654  00000-0  12197-3 0  9998,2 54793  53.2171 124.8772 0001353  85.2775 274.8372 15.08851496 41382,6917.845,95.437,540.646,538.774,0.0
54793.0,STARLINK-5433,PAYLOAD,2023-09-17 00:08:33,15.0884292,0.000141,53.2168,120.4162,96.5325,263.5828,0.00022712,3.329e-05,0.0,0 STARLINK-5433,1 54793U 22175AM  23260.00594783  .00003329  00000-0  22712-3 0  9998,2 54793  53.2168 120.4162 0001410  96.5325 263.5828 15.08842920 41533,6917.871,95.437,540.712,538.761,0.0
54793.0,STARLINK-5433,PAYLOAD,2023-09-17 23:59:20,15.08848935,0.000143,53.216,115.9547,95.3327,264.7828,9.876e-05,1.285e-05,0.0,0 STARLINK-5433,1 54793U 22175AM  23260.99954606  .00001285  00000-0  98760-4 0  9996,2 54793  53.2160 115.9547 0001430  95.3327 264.7828 15.08848935 43843,6917.853,95.437,540.707,538.729,0.0
54793.0,STARLINK-5433,PAYLOAD,2023-09-18 17:28:35,15.08839129,0.0001561,53.2159,112.6836,99.8954,260.2214,5.2872e-05,5.54e-06,0.0,0 STARLINK-5433,1 54793U 22175AM  23261.72819147  .00000554  00000-0  52872-4 0  9990,2 54793  53.2159 112.6836 0001561  99.8954 260.2214 15.08839129 41793,6917.883,95.438,540.828,538.668,0.0
54793.0,STARLINK-5433,PAYLOAD,2023-09-18 20:39:21,15.0884424,0.0001418,53.2173,112.0879,97.1274,262.9879,5.0205e-05,5.11e-06,0.0,0 STARLINK-5433,1 54793U 22175AM  23261.86066905  .00000511  00000-0  50205-4 0  9992,2 54793  53.2173 112.0879 0001418  97.1274 262.9879 15.08844240 43975,6917.867,95.437,540.713,538.751,0.0
54793.0,STARLINK-5433,PAYLOAD,2023-09-19 18:54:45,15.08837054,0.0001584,53.2165,107.9229,103.5478,256.569,0.00059573,9.205e-05,0.0,0 STARLINK-5433,1 54793U 22175AM  23262.78802963  .00009205  00000-0  59573-3 0  9991,2 54793  53.2165 107.9229 0001584 103.5478 256.5690 15.08837054 41951,6917.889,95.438,540.85,538.659,0.0
54793.0,STARLINK-5433,PAYLOAD,2023-09-19 23:40:54,15.08856887,0.0001505,53.216,107.0317,94.3308,265.7856,0.00016748,2.38e-05,0.0,0 STARLINK-5433,1 54793U 22175AM  23262.98673936  .00002380  00000-0  16748-3 0  9993,2 54793  53.2160 107.0317 0001505  94.3308 265.7856 15.08856887 41981,6917.829,95.436,540.735,538.653,0.0
54793.0,STARLINK-5433,PAYLOAD,2023-09-20 18:45:33,15.0883376,0.0001742,53.2159,103.4609,124.6306,235.485,-5.9361e-05,-1.233e-05,0.0,0 STARLINK-5433,1 54793U 22175AM  23263.78163223 -.00001233  00000-0 -59361-4 0  9992,2 54793  53.2159 103.4609 0001742 124.6306 235.4850 15.08833760 42109,6917.899,95.438,540.97,538.559,0.0
54793.0,STARLINK-5433,PAYLOAD,2023-09-20 20:20:56,15.08829395,0.0001371,53.2161,103.1664,92.6562,267.4588,-0.00010376,-1.938e-05,0.0,0 STARLINK-5433,1 54793U 22175AM  23263.84787633 -.00001938  00000-0 -10376-3 0  9990,2 54793  53.2161 103.1664 0001371  92.6562 267.4588 15.08829395 44278,6917.913,95.438,540.726,538.829,0.0
54793.0,STARLINK-5433,PAYLOAD,2023-09-21 13:50:11,15.08835376,0.0001282,53.2157,99.8971,105.5099,254.6035,-5.8649e-05,-1.221e-05,0.0,0 STARLINK-5433,1 54793U 22175AM  23264.57651636 -.00001221  00000-0 -58649-4 0  9995,2 54793  53.2157  99.8971 0001282 105.5099 254.6035 15.08835376 44388,6917.895,95.438,540.646,538.873,0.0
54793.0,STARLINK-5433,PAYLOAD,2023-09-21 20:11:43,15.08842079,0.0001272,53.2155,98.7094,103.3415,256.7719,6.2017e-05,6.99e-06,0.0,0 STARLINK-5433,1 54793U 22175AM  23264.84147414  .00000699  00000-0  62017-4 0  9999,2 54793  53.2155  98.7094 0001272 103.3415 256.7719 15.08842079 44422,6917.874,95.437,540.619,538.859,0.0
54793.0,STARLINK-5433,PAYLOAD,2023-09-21 23:22:29,15.08842866,0.0001289,53.2157,98.1136,101.9478,258.1659,0.00023209,3.408e-05,0.0,0 STARLINK-5433,1 54793U 22175AM  23264.97395529  .00003408  00000-0  23209-3 0  9995,2 54793  53.2157  98.1136 0001289 101.9478 258.1659 15.08842866 42281,6917.872,95.437,540.628,538.845,0.0
54793.0,STARLINK-5433,PAYLOAD,2023-09-22 05:44:02,15.08841937,0.0001281,53.2159,96.924,98.3208,261.793,0.00024995,3.693e-05,0.0,0 STARLINK-5433,1 54793U 22175AM  23265.23891687  .00003693  00000-0  24995-3 0  9990,2 54793  53.2159  96.9240 0001281  98.3208 261.7930 15.08841937 44481,6917.874,95.437,540.626,538.853,0.0
54793.0,STARLINK-5433,PAYLOAD,2023-09-22 20:02:30,15.08850871,0.0001294,53.2162,94.2482,101.2464,258.8674,0.00045481,6.96e-05,0.0,0 STARLINK-5433,1 54793U 22175AM  23265.83507581  .00006960  00000-0  45481-3 0  9996,2 54793  53.2162  94.2482 0001294 101.2464 258.8674 15.08850871 44575,6917.847,95.437,540.607,538.817,0.0
54793.0,STARLINK-5433,PAYLOAD,2023-09-23 18:17:54,15.08844173,0.0001283,53.2158,90.0855,101.5324,258.5813,0.00011235,1.501e-05,0.0,0 STARLINK-5433,1 54793U 22175AM  23266.76243561  .00001501  00000-0  11235-3 0  9990,2 54793  53.2158  90.0855 0001283 101.5324 258.5813 15.08844173 42550,6917.868,95.437,540.62,538.845,0.0
54793.0,STARLINK-5433,PAYLOAD,2023-09-24 11:47:09,15.08842922,0.0001313,53.2155,86.8144,92.7383,267.376,0.00010349,1.36e-05,0.0,0 STARLINK-5433,1 54793U 22175AM  23267.49107709  .00001360  00000-0  10349-3 0  9992,2 54793  53.2155  86.8144 0001313  92.7383 267.3760 15.08842922 44822,6917.871,95.437,540.645,538.828,0.0
54793.0,STARLINK-5433,PAYLOAD,2023-09-24 19:44:04,15.08846653,0.0001247,53.2162,85.3269,81.5738,278.5395,9.5622e-05,1.235e-05,0.0,0 STARLINK-5433,1 54793U 22175AM  23267.82227452  .00001235  00000-0  95622-4 0  9996,2 54793  53.2162  85.3269 0001247  81.5738 278.5395 15.08846653 44876,6917.86,95.437,540.588,538.862,0.0
54793.0,STARLINK-5433,PAYLOAD,2023-09-25 05:16:23,15.0884693,0.0001361,53.2164,83.5437,80.9503,279.1643,0.00017177,2.447e-05,0.0,0 STARLINK-5433,1 54793U 22175AM  23268.21971595  .00002447  00000-0  17177-3 0  9998,2 54793  53.2164  83.5437 0001361  80.9503 279.1643 15.08846930 44933,6917.859,95.437,540.666,538.783,0.0
54793.0,STARLINK-5433,PAYLOAD,2023-09-25 21:10:14,15.08853471,0.0001368,53.2158,80.5684,86.4902,273.6247,0.00031753,4.771e-05,0.0,0 STARLINK-5433,1 54793U 22175AM  23268.88211189  .00004771  00000-0  31753-3 0  9995,2 54793  53.2158  80.5684 0001368  86.4902 273.6247 15.08853471 45037,6917.839,95.437,540.651,538.758,0.0
54793.0,STARLINK-5433,PAYLOAD,2023-09-26 14:39:29,15.08835845,0.0001257,53.2159,77.2976,75.1119,285.0012,1.8556e-05,7e-08,0.0,0 STARLINK-5433,1 54793U 22175AM  23269.61076078  .00000007  00000-0  18556-4 0  9998,2 54793  53.2159  77.2976 0001257  75.1119 285.0012 15.08835845 45141,6917.893,95.438,540.628,538.889,0.0
54793.0,STARLINK-5433,PAYLOAD,2023-09-26 17:50:15,15.08839364,0.0001458,53.2156,76.7026,87.6463,272.4696,9.9582e-05,1.297e-05,0.0,0 STARLINK-5433,1 54793U 22175AM  23269.74324002  .00001297  00000-0  99582-4 0  9995,2 54793  53.2156  76.7026 0001458  87.6463 272.4696 15.08839364 43002,6917.882,95.438,540.756,538.739,0.0
54793.0,STARLINK-5433,PAYLOAD,2023-09-26 21:01:02,15.08842119,0.000145,53.2155,76.1075,87.6625,272.4533,0.00015893,2.242e-05,0.0,0 STARLINK-5433,1 54793U 22175AM  23269.87571927  .00002242  00000-0  15893-3 0  9992,2 54793  53.2155  76.1075 0001450  87.6625 272.4533 15.08842119 45184,6917.874,95.437,540.742,538.736,0.0
54793.0,STARLINK-5433,PAYLOAD,2023-09-27 20:51:49,15.08837725,0.0001552,53.2168,71.6444,95.6419,264.475,0.00010813,1.433e-05,0.0,0 STARLINK-5433,1 54793U 22175AM  23270.86932400  .00001433  00000-0  10813-3 0  9998,2 54793  53.2168  71.6444 0001552  95.6419 264.4750 15.08837725 43177,6917.887,95.438,540.826,538.679,0.0
54793.0,STARLINK-5433,PAYLOAD,2023-09-28 14:21:03,15.08845652,0.0001525,53.2168,68.3733,96.7367,263.3798,0.00026493,3.932e-05,0.0,0 STARLINK-5433,1 54793U 22175AM  23271.59796127  .00003932  00000-0  26493-3 0  9990,2 54793  53.2168  68.3733 0001525  96.7367 263.3798 15.08845652 45445,6917.863,95.437,540.783,538.673,0.0
54793.0,STARLINK-5433,PAYLOAD,2023-09-28 15:56:26,15.08847531,0.0001534,53.2168,68.0757,95.2384,264.8783,0.00029803,4.459e-05,0.0,0 STARLINK-5433,1 54793U 22175AM  23271.66420109  .00004459  00000-0  29803-3 0  9995,2 54793  53.2168  68.0757 0001534  95.2384 264.8783 15.08847531 45450,6917.857,95.437,540.784,538.661,0.0
54793.0,STARLINK-5433,PAYLOAD,2023-09-29 09:25:41,15.08841578,0.0001422,53.2169,64.814,73.907,286.2078,0.00011724,1.578e-05,0.0,0 STARLINK-5433,1 54793U 22175AM  23272.39284363  .00001578  00000-0  11724-3 0  9998,2 54793  53.2169  64.8140 0001422  73.9070 286.2078 15.08841578 43405,6917.876,95.437,540.724,538.757,0.0
54793.0,STARLINK-5433,PAYLOAD,2023-09-29 14:11:51,15.08838479,0.0001437,53.2169,63.9176,81.5128,278.6027,1.9803e-05,2.7e-07,0.0,0 STARLINK-5433,1 54793U 22175AM  23272.59156593  .00000027  00000-0  19803-4 0  9998,2 54793  53.2169  63.9176 0001437  81.5128 278.6027 15.08838479 45596,6917.885,95.438,540.744,538.756,0.0
54793.0,STARLINK-5433,PAYLOAD,2023-09-29 18:58:00,15.0884148,0.0001595,53.2173,63.0246,100.7577,259.3595,2.0982e-05,4.6e-07,0.0,0 STARLINK-5433,1 54793U 22175AM  23272.79028293  .00000046  00000-0  20982-4 0  9996,2 54793  53.2173  63.0246 0001595 100.7577 259.3595 15.08841480 45623,6917.876,95.437,540.844,538.637,0.0
54793.0,STARLINK-5433,PAYLOAD,2023-09-30 17:13:24,15.08847136,0.00016,53.2176,58.8588,93.9044,266.2131,6.8759e-05,8.07e-06,0.0,0 STARLINK-5433,1 54793U 22175AM  23273.71764043  .00000807  00000-0  68759-4 0  9998,2 54793  53.2176  58.8588 0001600  93.9044 266.2131 15.08847136 43609,6917.859,95.437,540.83,538.617,0.0
